start=new Date('2023-04-16T00:00:00.000Z').valueOf();
sats=[{"NORAD_CAT_ID":"47674","DECAY_DATE":null,"RCS_SIZE":"LARGE","LAUNCH_DATE":"2021-02-16","CENTER_NAME":"EARTH","ECCENTRICITY":"0.00015420","ARG_OF_PERICENTER":"86.6243","OBJECT_ID":"2021-012BG","PERIOD":"95.591","COUNTRY_CODE":"US","TLE_LINE1":"1 47674U 21012BG  23105.78478925  .00003307  00000-0  24074-3 0  9998","EPHEMERIS_TYPE":"0","APOAPSIS":"548.250","INCLINATION":"53.0525","REV_AT_EPOCH":"12066","MEAN_MOTION":"15.06410128","TLE_LINE2":"2 47674  53.0525 125.2176 0001542  86.6243 273.4922 15.06410128120667","RA_OF_ASC_NODE":"125.2176","MEAN_MOTION_DDOT":"0.0000000000000","MEAN_MOTION_DOT":"0.00003307","BSTAR":"0.00024074000000","SITE":"AFETR","MEAN_ELEMENT_THEORY":"SGP4","REF_FRAME":"TEME","ELEMENT_SET_NO":"999","PERIAPSIS":"546.115","OBJECT_NAME":"STARLINK-2067","SEMIMAJOR_AXIS":"6925.318","MEAN_ANOMALY":"273.4922","EPOCH":"2023-04-15T18:50:05.791200","CLASSIFICATION_TYPE":"U","GP_ID":"230130066","OBJECT_TYPE":"PAYLOAD","FILE":"3888171","TIME_SYSTEM":"UTC"},{"OBJECT_ID":"2021-012BH","PERIOD":"95.593","ARG_OF_PERICENTER":"89.4583","COUNTRY_CODE":"US","RCS_SIZE":"LARGE","LAUNCH_DATE":"2021-02-16","ECCENTRICITY":"0.00015500","CENTER_NAME":"EARTH","DECAY_DATE":null,"NORAD_CAT_ID":"47675","TLE_LINE2":"2 47675  53.0535 125.2554 0001550  89.4583 270.6583 15.06382463120668","MEAN_MOTION":"15.06382463","INCLINATION":"53.0535","TLE_LINE1":"1 47675U 21012BH  23105.77836356 -.00009383  00000-0 -61215-3 0  9994","APOAPSIS":"548.341","EPHEMERIS_TYPE":"0","REV_AT_EPOCH":"12066","ELEMENT_SET_NO":"999","REF_FRAME":"TEME","PERIAPSIS":"546.194","SITE":"AFETR","MEAN_ELEMENT_THEORY":"SGP4","RA_OF_ASC_NODE":"125.2554","BSTAR":"-0.00061215000000","MEAN_MOTION_DOT":"-0.00009383","MEAN_MOTION_DDOT":"0.0000000000000","TIME_SYSTEM":"UTC","FILE":"3888171","OBJECT_TYPE":"PAYLOAD","GP_ID":"230130313","CLASSIFICATION_TYPE":"U","EPOCH":"2023-04-15T18:40:50.611584","OBJECT_NAME":"STARLINK-2078","MEAN_ANOMALY":"270.6583","SEMIMAJOR_AXIS":"6925.402"},{"TIME_SYSTEM":"UTC","FILE":"3888171","OBJECT_TYPE":"PAYLOAD","GP_ID":"230128566","CLASSIFICATION_TYPE":"U","EPOCH":"2023-04-15T21:45:15.103584","MEAN_ANOMALY":"287.9568","SEMIMAJOR_AXIS":"6925.124","OBJECT_NAME":"STARLINK-2083","PERIAPSIS":"546.396","ELEMENT_SET_NO":"999","REF_FRAME":"TEME","MEAN_ELEMENT_THEORY":"SGP4","SITE":"AFETR","BSTAR":"0.00237450000000","MEAN_MOTION_DDOT":"0.0000000000000","MEAN_MOTION_DOT":"0.00035334","RA_OF_ASC_NODE":"14.6809","TLE_LINE2":"2 47676  53.0570  14.6809 0000857  72.1514 287.9568 15.06473130121706","MEAN_MOTION":"15.06473130","REV_AT_EPOCH":"12170","INCLINATION":"53.0570","TLE_LINE1":"1 47676U 21012BJ  23105.90642481  .00035334  00000-0  23745-2 0  9992","APOAPSIS":"547.583","EPHEMERIS_TYPE":"0","COUNTRY_CODE":"US","PERIOD":"95.587","OBJECT_ID":"2021-012BJ","ARG_OF_PERICENTER":"72.1514","LAUNCH_DATE":"2021-02-16","CENTER_NAME":"EARTH","ECCENTRICITY":"0.00008570","RCS_SIZE":"LARGE","DECAY_DATE":null,"NORAD_CAT_ID":"47676"},{"OBJECT_NAME":"STARLINK-2090","MEAN_ANOMALY":"296.7124","SEMIMAJOR_AXIS":"6925.314","EPOCH":"2023-04-15T19:56:26.601216","CLASSIFICATION_TYPE":"U","GP_ID":"230104391","OBJECT_TYPE":"PAYLOAD","FILE":"3888013","TIME_SYSTEM":"UTC","RA_OF_ASC_NODE":"145.0109","MEAN_MOTION_DOT":"0.00015029","MEAN_MOTION_DDOT":"0.0000000000000","BSTAR":"0.00102540000000","SITE":"AFETR","MEAN_ELEMENT_THEORY":"SGP4","ELEMENT_SET_NO":"999","REF_FRAME":"TEME","PERIAPSIS":"545.925","EPHEMERIS_TYPE":"0","TLE_LINE1":"1 47677U 21012BK  23105.83086344  .00015029  00000-0  10254-2 0  9995","APOAPSIS":"548.434","INCLINATION":"53.0516","REV_AT_EPOCH":"11987","MEAN_MOTION":"15.06411127","TLE_LINE2":"2 47677  53.0516 145.0109 0001812  63.4051 296.7124 15.06411127119879","DECAY_DATE":null,"NORAD_CAT_ID":"47677","RCS_SIZE":"LARGE","CENTER_NAME":"EARTH","LAUNCH_DATE":"2021-02-16","ECCENTRICITY":"0.00018120","ARG_OF_PERICENTER":"63.4051","PERIOD":"95.591","OBJECT_ID":"2021-012BK","COUNTRY_CODE":"US"},{"BSTAR":"0.00001126200000","MEAN_MOTION_DOT":"-0.00000114","MEAN_MOTION_DDOT":"0.0000000000000","RA_OF_ASC_NODE":"146.9694","MEAN_ELEMENT_THEORY":"SGP4","SITE":"AFETR","PERIAPSIS":"546.153","ELEMENT_SET_NO":"999","REF_FRAME":"TEME","MEAN_ANOMALY":"266.5435","SEMIMAJOR_AXIS":"6925.353","OBJECT_NAME":"STARLINK-2095","EPOCH":"2023-04-15T09:30:07.892352","GP_ID":"230098803","CLASSIFICATION_TYPE":"U","TIME_SYSTEM":"UTC","OBJECT_TYPE":"PAYLOAD","FILE":"3887974","NORAD_CAT_ID":"47679","DECAY_DATE":null,"LAUNCH_DATE":"2021-02-16","ECCENTRICITY":"0.00015370","CENTER_NAME":"EARTH","RCS_SIZE":"LARGE","COUNTRY_CODE":"US","OBJECT_ID":"2021-012BM","PERIOD":"95.592","ARG_OF_PERICENTER":"93.5729","REV_AT_EPOCH":"12033","INCLINATION":"53.0532","TLE_LINE1":"1 47679U 21012BM  23105.39592468 -.00000114  00000-0  11262-4 0  9999","APOAPSIS":"548.282","EPHEMERIS_TYPE":"0","MEAN_MOTION":"15.06398639","TLE_LINE2":"2 47679  53.0532 146.9694 0001537  93.5729 266.5435 15.06398639120333"},{"DECAY_DATE":null,"NORAD_CAT_ID":"47722","CENTER_NAME":"EARTH","LAUNCH_DATE":"2021-03-04","ECCENTRICITY":"0.00008820","RCS_SIZE":"LARGE","COUNTRY_CODE":"US","ARG_OF_PERICENTER":"83.8582","PERIOD":"95.588","OBJECT_ID":"2021-017A","REV_AT_EPOCH":"11839","EPHEMERIS_TYPE":"0","TLE_LINE1":"1 47722U 21017A   23105.83689745  .00035131  00000-0  23618-2 0  9999","APOAPSIS":"547.640","INCLINATION":"53.0534","MEAN_MOTION":"15.06460186","TLE_LINE2":"2 47722  53.0534 270.2337 0000882  83.8582 276.2507 15.06460186118398","MEAN_MOTION_DDOT":"0.0000000000000","MEAN_MOTION_DOT":"0.00035131","BSTAR":"0.00236180000000","RA_OF_ASC_NODE":"270.2337","MEAN_ELEMENT_THEORY":"SGP4","SITE":"AFETR","PERIAPSIS":"546.418","ELEMENT_SET_NO":"999","REF_FRAME":"TEME","MEAN_ANOMALY":"276.2507","SEMIMAJOR_AXIS":"6925.164","OBJECT_NAME":"STARLINK-2068","EPOCH":"2023-04-15T20:05:07.939680","CLASSIFICATION_TYPE":"U","GP_ID":"230129817","OBJECT_TYPE":"PAYLOAD","FILE":"3888171","TIME_SYSTEM":"UTC"},{"ELEMENT_SET_NO":"999","REF_FRAME":"TEME","PERIAPSIS":"546.000","RA_OF_ASC_NODE":"205.5473","BSTAR":"0.00300240000000","MEAN_MOTION_DOT":"0.00044886","MEAN_MOTION_DDOT":"0.0000000000000","SITE":"AFETR","MEAN_ELEMENT_THEORY":"SGP4","GP_ID":"230129069","CLASSIFICATION_TYPE":"U","TIME_SYSTEM":"UTC","FILE":"3888171","OBJECT_TYPE":"PAYLOAD","OBJECT_NAME":"STARLINK-2107","SEMIMAJOR_AXIS":"6924.943","MEAN_ANOMALY":"263.8073","EPOCH":"2023-04-15T17:05:13.660224","OBJECT_ID":"2021-017B","PERIOD":"95.584","ARG_OF_PERICENTER":"96.3049","COUNTRY_CODE":"US","DECAY_DATE":null,"NORAD_CAT_ID":"47723","RCS_SIZE":"LARGE","ECCENTRICITY":"0.00011670","LAUNCH_DATE":"2021-03-04","CENTER_NAME":"EARTH","MEAN_MOTION":"15.06532273","TLE_LINE2":"2 47723  53.0538 205.5473 0001167  96.3049 263.8073 15.06532273119252","INCLINATION":"53.0538","APOAPSIS":"547.616","TLE_LINE1":"1 47723U 21017B   23105.71196366  .00044886  00000-0  30024-2 0  9995","EPHEMERIS_TYPE":"0","REV_AT_EPOCH":"11925"},{"INCLINATION":"53.0515","APOAPSIS":"547.792","TLE_LINE1":"1 47724U 21017C   23105.68246979  .00048544  00000-0  32432-2 0  9998","EPHEMERIS_TYPE":"0","REV_AT_EPOCH":"11921","TLE_LINE2":"2 47724  53.0515 205.6851 0001458  80.1014 280.0139 15.06540598119214","MEAN_MOTION":"15.06540598","RCS_SIZE":"LARGE","LAUNCH_DATE":"2021-03-04","CENTER_NAME":"EARTH","ECCENTRICITY":"0.00014580","DECAY_DATE":null,"NORAD_CAT_ID":"47724","PERIOD":"95.583","OBJECT_ID":"2021-017C","ARG_OF_PERICENTER":"80.1014","COUNTRY_CODE":"US","EPOCH":"2023-04-15T16:22:45.389856","OBJECT_NAME":"STARLINK-2116","MEAN_ANOMALY":"280.0139","SEMIMAJOR_AXIS":"6924.918","TIME_SYSTEM":"UTC","FILE":"3888171","OBJECT_TYPE":"PAYLOAD","GP_ID":"230128819","CLASSIFICATION_TYPE":"U","SITE":"AFETR","MEAN_ELEMENT_THEORY":"SGP4","RA_OF_ASC_NODE":"205.6851","BSTAR":"0.00324320000000","MEAN_MOTION_DOT":"0.00048544","MEAN_MOTION_DDOT":"0.0000000000000","ELEMENT_SET_NO":"999","REF_FRAME":"TEME","PERIAPSIS":"545.773"},{"REV_AT_EPOCH":"11827","TLE_LINE1":"1 47725U 21017D   23105.84930915  .00033188  00000-0  22333-2 0  9994","APOAPSIS":"547.939","EPHEMERIS_TYPE":"0","INCLINATION":"53.0532","MEAN_MOTION":"15.06453074","TLE_LINE2":"2 47725  53.0532 274.9374 0001282  69.0174 291.0952 15.06453074118273","DECAY_DATE":null,"NORAD_CAT_ID":"47725","LAUNCH_DATE":"2021-03-04","CENTER_NAME":"EARTH","ECCENTRICITY":"0.00012820","RCS_SIZE":"LARGE","COUNTRY_CODE":"US","ARG_OF_PERICENTER":"69.0174","OBJECT_ID":"2021-017D","PERIOD":"95.589","MEAN_ANOMALY":"291.0952","SEMIMAJOR_AXIS":"6925.186","OBJECT_NAME":"STARLINK-2125","EPOCH":"2023-04-15T20:23:00.310560","CLASSIFICATION_TYPE":"U","GP_ID":"230130070","FILE":"3888171","OBJECT_TYPE":"PAYLOAD","TIME_SYSTEM":"UTC","MEAN_MOTION_DOT":"0.00033188","MEAN_MOTION_DDOT":"0.0000000000000","BSTAR":"0.00223330000000","RA_OF_ASC_NODE":"274.9374","MEAN_ELEMENT_THEORY":"SGP4","SITE":"AFETR","PERIAPSIS":"546.163","ELEMENT_SET_NO":"999","REF_FRAME":"TEME"},{"MEAN_ANOMALY":"291.8167","SEMIMAJOR_AXIS":"6925.154","OBJECT_NAME":"STARLINK-2126","EPOCH":"2023-04-15T21:37:18.547968","CLASSIFICATION_TYPE":"U","GP_ID":"230130317","FILE":"3888171","OBJECT_TYPE":"PAYLOAD","TIME_SYSTEM":"UTC","MEAN_MOTION_DDOT":"0.0000000000000","MEAN_MOTION_DOT":"0.00034418","BSTAR":"0.00231430000000","RA_OF_ASC_NODE":"274.7012","MEAN_ELEMENT_THEORY":"SGP4","SITE":"AFETR","PERIAPSIS":"546.296","ELEMENT_SET_NO":"999","REF_FRAME":"TEME","REV_AT_EPOCH":"11827","APOAPSIS":"547.742","TLE_LINE1":"1 47726U 21017E   23105.90090912  .00034418  00000-0  23143-2 0  9993","EPHEMERIS_TYPE":"0","INCLINATION":"53.0521","MEAN_MOTION":"15.06463448","TLE_LINE2":"2 47726  53.0521 274.7012 0001044  68.2933 291.8167 15.06463448118271","DECAY_DATE":null,"NORAD_CAT_ID":"47726","CENTER_NAME":"EARTH","LAUNCH_DATE":"2021-03-04","ECCENTRICITY":"0.00010440","RCS_SIZE":"LARGE","COUNTRY_CODE":"US","ARG_OF_PERICENTER":"68.2933","OBJECT_ID":"2021-017E","PERIOD":"95.588"}];
